NORAD_CAT_ID,OBJECT_NAME,OBJECT_TYPE,EPOCH,MEAN_MOTION,ECCENTRICITY,INCLINATION,RA_OF_ASC_NODE,ARG_OF_PERICENTER,MEAN_ANOMALY,BSTAR,MEAN_MOTION_DOT,MEAN_MOTION_DDOT,TLE_LINE0,TLE_LINE1,TLE_LINE2,SEMIMAJOR_AXIS,PERIOD,APOGEE,PERIGEE,DECAYED
53551.0,STARLINK-4514,PAYLOAD,2022-09-01 20:00:01,15.73248941,0.0001072,53.216,90.1839,58.9675,183.3129,-0.00011028,-0.00016099,0.0,0 STARLINK-4514,1 53551U 22101AA  22244.83335648 -.00016099  00000-0 -11028-3 0  9991,2 53551  53.2160  90.1839 0001072  58.9675 183.3129 15.73248941  2078,6727.755999999999,91.53,350.342,348.899,0.0
53551.0,STARLINK-4514,PAYLOAD,2022-09-01 22:00:00,15.73260824,0.0001113,53.2163,89.7719,55.3977,299.0592,-0.00034165,-0.00048417,0.0,0 STARLINK-4514,1 53551U 22101AA  22244.91667824 -.00048417  00000-0 -34165-3 0  9990,2 53551  53.2163  89.7719 0001113  55.3977 299.0592 15.73260824  1302,6727.722,91.53,350.336,348.838,0.0
53551.0,STARLINK-4514,PAYLOAD,2022-09-02 12:00:02,15.7320419,0.00011,53.2175,86.8775,64.0514,356.1553,-2.8465e-06,-1.019e-05,0.0,0 STARLINK-4514,1 53551U 22101AA  22245.50002315 -.00001019  00000-0 -28465-5 0  9999,2 53551  53.2175  86.8775 0001100  64.0514 356.1553 15.73204190  2188,6727.8830000000025,91.533,350.48800000000006,349.0080000000001,0.0
53551.0,STARLINK-4514,PAYLOAD,2022-09-02 14:00:01,15.73252204,0.0001137999999999,53.2166,86.4708,69.2726,103.1309,-3.8727e-05,-6.063e-05,0.0,0 STARLINK-4514,1 53551U 22101AA  22245.58334491 -.00006063  00000-0 -38727-4 0  9995,2 53551  53.2166  86.4708 0001138  69.2726 103.1309 15.73252204  1304,6727.746,91.53,350.37699999999984,348.846,0.0
53551.0,STARLINK-4514,PAYLOAD,2022-09-02 20:00:01,15.73247511,0.0001185,53.2161,85.2352,54.0869,95.0626,-0.00044662,-0.00062959,0.0,0 STARLINK-4514,1 53551U 22101AA  22245.83334491 -.00062959  00000-0 -44662-3 0  9993,2 53551  53.2161  85.2352 0001185  54.0869  95.0626 15.73247511  2232,6727.76,91.53,350.422,348.827,0.0
53551.0,STARLINK-4514,PAYLOAD,2022-09-02 22:00:01,15.73221577,0.0001223,53.2162,84.8232,52.8076,208.6611,-0.00012169,-0.00017678,0.0,0 STARLINK-4514,1 53551U 22101AA  22245.91668981 -.00017678  00000-0 -12169-3 0  9991,2 53551  53.2162  84.8232 0001223  52.8076 208.6611 15.73221577  1301,6727.834,91.532,350.521,348.876,0.0
53551.0,STARLINK-4514,PAYLOAD,2022-09-03 14:00:01,15.73192419,0.0001149,53.2163,81.5223,67.0693,12.1898,0.0004071,0.00056883,0.0,0 STARLINK-4514,1 53551U 22101AA  22246.58334491  .00056883  00000-0  40710-3 0  9993,2 53551  53.2163  81.5223 0001149  67.0693  12.1898 15.73192419  2359,6727.917,91.534,350.555,349.009,0.0
53551.0,STARLINK-4514,PAYLOAD,2022-09-03 22:00:00,15.73236157,0.0001197,53.2166,79.8749,51.2035,116.9972,-1.3152e-05,-2.468e-05,0.0,0 STARLINK-4514,1 53551U 22101AA  22246.91667824 -.00002468  00000-0 -13152-4 0  9992,2 53551  53.2166  79.8749 0001197  51.2035 116.9972 15.73236157  1301,6727.792,91.531,350.462,348.852,0.0
53551.0,STARLINK-4514,PAYLOAD,2022-09-04 06:00:00,15.73220844,0.0001022999999999,53.2166,78.2239,49.1204,208.0579,0.00013113,0.00017839,0.0,0 STARLINK-4514,1 53551U 22101AA  22247.25001157  .00017839  00000-0  13113-3 0  9993,2 53551  53.2166  78.2239 0001023  49.1204 208.0579 15.73220844  2459,6727.8359999999975,91.532,350.389,349.01199999999994,0.0
53551.0,STARLINK-4514,PAYLOAD,2022-09-04 14:00:01,15.73245593,0.0001072999999999,53.2167,76.574,56.2721,289.9245,-0.00027991,-0.00039793,0.0,0 STARLINK-4514,1 53551U 22101AA  22247.58335648 -.00039793  00000-0 -27991-3 0  9998,2 53551  53.2167  76.5740 0001073  56.2721 289.9245 15.73245593  1305,6727.765,91.531,350.352,348.908,0.0
53551.0,STARLINK-4514,PAYLOAD,2022-09-04 20:00:01,15.73259033,0.0001235,53.2163,75.3384,46.3148,276.5656,-0.00046475,-0.00065502,0.0,0 STARLINK-4514,1 53551U 22101AA  22247.83334491 -.00065502  00000-0 -46475-3 0  9996,2 53551  53.2163  75.3384 0001235  46.3148 276.5656 15.73259033  1307,6727.727,91.53,350.423,348.761,0.0
53551.0,STARLINK-4514,PAYLOAD,2022-09-05 04:00:00,15.73170876,0.0001356,53.2158,73.6884,46.3318,5.5025,3.8014e-05,4.712e-05,0.0,0 STARLINK-4514,1 53551U 22101AA  22248.16667824  .00004712  00000-0  38014-4 0  9997,2 53551  53.2158  73.6884 0001356  46.3318   5.5025 15.73170876  2601,6727.978,91.535,350.756,348.931,0.0
53551.0,STARLINK-4514,PAYLOAD,2022-09-05 14:00:01,15.73147774,0.0001139,53.2162,71.6257,48.4116,204.5267,0.00041667,0.00058131,0.0,0 STARLINK-4514,1 53551U 22101AA  22248.58334491  .00058131  00000-0  41667-3 0  9995,2 53551  53.2162  71.6257 0001139  48.4116 204.5267 15.73147774  1302,6728.044,91.536,350.675,349.14300000000014,0.0
53551.0,STARLINK-4514,PAYLOAD,2022-09-05 20:00:01,15.7316242,0.0001341,53.2162,70.3904,40.2876,189.3011,0.0003907,0.0005447999999999,0.0,0 STARLINK-4514,1 53551U 22101AA  22248.83334491  .00054480  00000-0  39070-3 0  9991,2 53551  53.2162  70.3904 0001341  40.2876 189.3011 15.73162420  1307,6728.002,91.535,350.77,348.965,0.0
53551.0,STARLINK-4514,PAYLOAD,2022-09-06 14:00:01,15.73138086,0.00015,53.2165,66.6776,51.4636,108.1635,0.00031897,0.00044263,0.0,0 STARLINK-4514,1 53551U 22101AA  22249.58334491  .00044263  00000-0  31897-3 0  9991,2 53551  53.2165  66.6776 0001500  51.4636 108.1635 15.73138086  1302,6728.071999999999,91.537,350.946,348.927,0.0
53551.0,STARLINK-4514,PAYLOAD,2022-09-06 20:00:01,15.73190272,0.0001616,53.216,65.4419,45.5248,90.7572,0.00037269,0.00051988,0.0,0 STARLINK-4514,1 53551U 22101AA  22249.83334491  .00051988  00000-0  37269-3 0  9990,2 53551  53.2160  65.4419 0001616  45.5248  90.7572 15.73190272  2862,6727.9230000000025,91.534,350.875,348.701,0.0
53551.0,STARLINK-4514,PAYLOAD,2022-09-06 22:00:00,15.73218626,0.0001564,53.216,65.0298,41.1509,207.3504,-2.7074e-08,-6.24e-06,0.0,0 STARLINK-4514,1 53551U 22101AA  22249.91667824 -.00000624  00000-0 -27074-7 0  9998,2 53551  53.2160  65.0298 0001564  41.1509 207.3504 15.73218626  1300,6727.842,91.532,350.759,348.655,0.0
53551.0,STARLINK-4514,PAYLOAD,2022-09-07 04:00:00,15.73241746,0.0001412,53.2155,63.7912,41.4396,183.7738,-0.0007232,-0.00101087,0.0,0 STARLINK-4514,1 53551U 22101AA  22250.16667824 -.00101087  00000-0 -72320-3 0  9992,2 53551  53.2155  63.7912 0001412  41.4396 183.7738 15.73241746  2914,6727.776,91.531,350.591,348.691,0.0
53551.0,STARLINK-4514,PAYLOAD,2022-09-07 12:00:00,15.731686600000002,0.0001388,53.2158,62.1408,49.31,264.8424,0.00052742,0.00073954,0.0,0 STARLINK-4514,1 53551U 22101AA  22250.50001157  .00073954  00000-0  52742-3 0  9996,2 53551  53.2158  62.1408 0001388  49.3100 264.8424 15.73168660  2963,6727.985,91.535,350.783,348.916,0.0
53551.0,STARLINK-4514,PAYLOAD,2022-09-07 14:00:01,15.73196224,0.0001429,53.2159,61.729,47.1049,19.2677,0.00026439,0.00036641,0.0,0 STARLINK-4514,1 53551U 22101AA  22250.58334491  .00036641  00000-0  26439-3 0  9990,2 53551  53.2159  61.7290 0001429  47.1049  19.2677 15.73196224  1308,6727.906,91.533,350.732,348.81,0.0
53551.0,STARLINK-4514,PAYLOAD,2022-09-07 22:00:00,15.73195096,0.0001643,53.2159,60.0811,40.3729,114.9109,0.00054678,0.00076806,0.0,0 STARLINK-4514,1 53551U 22101AA  22250.91667824  .00076806  00000-0  54678-3 0  9999,2 53551  53.2159  60.0811 0001643  40.3729 114.9109 15.73195096  3038,6727.909000000002,91.533,350.88,348.6690000000001,0.0
53551.0,STARLINK-4514,PAYLOAD,2022-09-08 04:00:00,15.73257445,0.0001646,53.2161,58.8423,43.7443,88.2454,-0.00056676,-0.00079611,0.0,0 STARLINK-4514,1 53551U 22101AA  22251.16667824 -.00079611  00000-0 -56676-3 0  9996,2 53551  53.2161  58.8423 0001646  43.7443  88.2454 15.73257445  3075,6727.731,91.53,350.704,348.48900000000015,0.0
53551.0,STARLINK-4514,PAYLOAD,2022-09-08 14:00:01,15.73248948,0.0001701,53.2162,56.7802,47.0285,286.1481,-3.3332e-05,-5.306e-05,0.0,0 STARLINK-4514,1 53551U 22101AA  22251.58334491 -.00005306  00000-0 -33332-4 0  9998,2 53551  53.2162  56.7802 0001701  47.0285 286.1481 15.73248948  1308,6727.755999999999,91.53,350.765,348.476,0.0
53551.0,STARLINK-4514,PAYLOAD,2022-09-08 22:00:00,15.73240146,0.0001761999999999,53.2156,55.1318,36.6982,25.4765,-0.00030822,-0.00043729,0.0,0 STARLINK-4514,1 53551U 22101AA  22251.91667824 -.00043729  00000-0 -30822-3 0  9995,2 53551  53.2156  55.1318 0001762  36.6982  25.4765 15.73240146  3191,6727.781,91.531,350.831,348.46,0.0
53551.0,STARLINK-4514,PAYLOAD,2022-09-09 14:00:01,15.73249578,0.0001628,53.2159,51.8313,43.1945,196.8065,-0.0002637,-0.00037544,0.0,0 STARLINK-4514,1 53551U 22101AA  22252.58334491 -.00037544  00000-0 -26370-3 0  9991,2 53551  53.2159  51.8313 0001628  43.1945 196.8065 15.73249578  1300,6727.754,91.53,350.714,348.524,0.0
53551.0,STARLINK-4514,PAYLOAD,2022-09-09 20:00:01,15.73217314,0.0001803,53.2161,50.5947,34.6823,182.0597,-0.00038448,-0.00054276,0.0,0 STARLINK-4514,1 53551U 22101AA  22252.83334491 -.00054276  00000-0 -38448-3 0  9999,2 53551  53.2161  50.5947 0001803  34.6823 182.0597 15.73217314  3332,6727.846,91.532,350.9240000000001,348.49800000000016,0.0
53551.0,STARLINK-4514,PAYLOAD,2022-09-09 22:00:00,15.73185165,0.0001771,53.216,50.1818,32.0943,296.8909,-7.7213e-06,-1.703e-05,0.0,0 STARLINK-4514,1 53551U 22101AA  22252.91667824 -.00001703  00000-0 -77213-5 0  9999,2 53551  53.2160  50.1818 0001771  32.0943 296.8909 15.73185165  1307,6727.937,91.534,350.994,348.611,0.0
53551.0,STARLINK-4514,PAYLOAD,2022-09-10 04:00:00,15.73306513,0.0001476999999999,53.2169,48.9414,28.2869,277.4244,-0.0015414,-0.00212544,0.0,0 STARLINK-4514,1 53551U 22101AA  22253.16667824 -.00212544  00000-0 -15414-2 0  9996,2 53551  53.2169  48.9414 0001477  28.2869 277.4244 15.73306513  3389,6727.592,91.527,350.45,348.463,0.0
53551.0,STARLINK-4514,PAYLOAD,2022-09-10 12:00:00,15.73226662,0.0001809,53.2166,47.2941,38.6982,355.9746,-0.00054678,-0.00076753,0.0,0 STARLINK-4514,1 53551U 22101AA  22253.50001157 -.00076753  00000-0 -54678-3 0  9991,2 53551  53.2166  47.2941 0001809  38.6982 355.9746 15.73226662  3434,6727.819,91.532,350.901,348.467,0.0
